IRIDIUM 155             
1 43573U 18061E   24135.91326329  .00000475  00000+0  16273-3 0  9995
2 43573  86.4002  15.6653 0002182  86.6009 273.5436 14.34212427303952
IRIDIUM 154             
1 43574U 18061F   24136.17330806  .00000227  00000+0  73993-4 0  9998
2 43574  86.4007  15.6535 0002475  86.9626 273.1853 14.34217282304044
IRIDIUM 163             
1 43575U 18061G   24135.94496854  .00000765  00000+0  26619-3 0  9998
2 43575  86.4002  15.6882 0002247  83.3733 276.7718 14.34224673303985
IRIDIUM 156             
1 43576U 18061H   24136.19867692  .00000648  00000+0  22445-3 0  9992
2 43576  86.4003  15.5885 0002157  87.8142 272.3301 14.34218277304009
IRIDIUM 164             
1 43577U 18061J   24135.90057418  .00000501  00000+0  17177-3 0  9992
2 43577  86.3997  15.7424 0002500  88.3345 271.8137 14.34217369304018
IRIDIUM 159             
1 43578U 18061K   24136.42699932  .00000720  00000+0  25015-3 0  9997
2 43578  86.4006  15.4746 0002513  87.9545 272.1939 14.34216552304057
IRIDIUM 180             
1 43922U 19002A   24135.93813743  .00000157  00000+0  48938-4 0  9993
2 43922  86.3939 312.5719 0002178  89.9085 270.2360 14.34218292279593
IRIDIUM 176             
1 43923U 19002B   24135.47393702  .00001049  00000+0  16247-3 0  9999
2 43923  86.6063 312.7906 0002559  92.3994 267.7516 14.72256823286883
IRIDIUM 168             
1 43924U 19002C   24136.55970955  .00000056  00000+0  12902-4 0  9993
2 43924  86.3938 312.3677 0002157  93.1944 266.9498 14.34217123279667
IRIDIUM 173             
1 43925U 19002D   24136.54701853  .00000121  00000+0  36131-4 0  9995
2 43925  86.3932 312.2930 0002316  91.0618 269.0843 14.34218979279652
IRIDIUM 169             
1 43926U 19002E   24135.94717705  .00000967  00000+0  30948-3 0  9999
2 43926  86.4230 344.1650 0002676  35.8383 324.2994 14.38623592280492
IRIDIUM 172             
1 43927U 19002F   24136.54067888  .00000024  00000+0  15276-5 0  9990
2 43927  86.3935 312.3013 0002201  92.2834 267.8614 14.34216122279656
IRIDIUM 175             
1 43928U 19002G   24136.48756417  .00003110  00000+0  48932-3 0  9999
2 43928  86.1477 287.3445 0002078  82.1056 278.0397 14.72236170287021
IRIDIUM 171             
1 43929U 19002H   24136.45188334  .00000170  00000+0  53685-4 0  9999
2 43929  86.3944 312.5607 0001990  96.0360 264.1063 14.34219367279639
IRIDIUM 170             
1 43930U 19002J   24135.88792065 -.00003554  00000+0 -56790-3 0  9999
2 43930  86.6057 312.6223 0002170  85.0552 275.0913 14.72254140286954
IRIDIUM 167             
1 43931U 19002K   24136.51530835  .00000034  00000+0  52322-5 0  9993
2 43931  86.3934 312.3276 0002113  90.9229 269.2209 14.34216361279646
IRIDIUM 181             
1 56726U 23068S   24136.38966100  .00000891  00000+0  25765-3 0  9999
2 56726  86.8665   4.5117 0002038  85.9556 274.1879 14.43561279 52407
IRIDIUM 177             
1 56727U 23068T   24135.82998010  .00000104  00000+0  10200-4 0  9999
2 56727  86.1962 331.2076 0002169 100.1744 259.9722 14.80238812 53447
IRIDIUM 174             
1 56728U 23068U   24136.50054996  .00000036  00000+0  11376-5 0  9992
2 56728  86.1962 330.9900 0002254  84.6834 275.4644 14.80239550 53548
IRIDIUM 178             
1 56729U 23068V   24136.56270114  .00004173  00000+0  54546-3 0  9991
2 56729  86.5791 346.8766 0002724  79.6990 280.4538 14.80243106 53559
IRIDIUM 179             
1 56730U 23068W   24136.55733787  .00003511  00000+0  45884-3 0  9992
2 56730  86.6803 350.6011 0002870  80.6119 279.5427 14.80207468 53556
